MAKERSAT 0              
1 43016U 17073D   26052.12691660  .00023319  00000+0  71959-3 0  9999
2 43016  97.4801 294.0568 0118166 325.1881  34.1667 15.26897080448728
SIRION PATHFINDER-2     
1 43759U 18099B   26052.12226836  .00004705  00000+0  26759-3 0  9997
2 43759  97.4423 103.9388 0008441 352.4305   7.6797 15.13315391395061
CORVUS BC4              
1 43767U 18099K   26052.10901639  .00004205  00000+0  25237-3 0  9990
2 43767  97.4240  98.4723 0009633  50.3919 309.8161 15.11417215394862
SPACEBEE-7              
1 43816U 18099BL  26052.21801376  .00497712  94345-4  18035-2 0  9990
2 43816  97.4508 137.5625 0006632 261.4941  98.5579 15.88514916396582
M2 PATHFINDER           
1 45727U 20037E   26052.44696531  .00002856  00000+0  21069-3 0  9991
2 45727  97.8166 242.3932 0011750 176.0176 184.1145 15.04063363308096
NETSAT-4                
1 46504U 20068U   26052.41151580  .00019720  00000+0  50141-3 0  9997
2 46504  97.8642  51.7046 0007087  34.6722 325.4984 15.39635972297931
NETSAT-3                
1 46505U 20068V   26051.93235733  .00017817  00000+0  47409-3 0  9995
2 46505  97.8671  49.5773 0007504  49.9512 310.2389 15.38258857297782
NETSAT-1                
1 46506U 20068W   26052.48375103  .00015499  00000+0  51234-3 0  9998
2 46506  97.8736  45.7717 0007636  63.1101 297.0918 15.31438037297579
NETSAT-2                
1 46507U 20068X   26052.44158957  .00023098  00000+0  56700-3 0  9998
2 46507  97.8651  51.3086 0006680  62.3197 297.8725 15.40677899297881
WILDTRACKCUBE-SIMBA     
1 47941U 21022K   26052.54623159  .00539845  12525-3  12279-2 0  9997
2 47941  97.3912 333.2276 0008717 105.1586 255.0655 15.97425575273250
GREENCUBE (IO-117)      
1 53109U 22080E   26051.14570130 -.00000003  00000+0  00000+0 0  9997
2 53109  70.1645 338.9501 0009075 315.3485  44.6443  6.42583107 84544
SITRO-AIS 5 (KATYS)     
1 57176U 23091L   26052.49212981  .00012613  00000+0  48361-3 0  9999
2 57176  97.5211 115.4483 0013056 146.5447 213.6619 15.26565311146672
SITRO-AIS 6 (CHIRKIN)   
1 57192U 23091AC  26052.49899081  .00006481  00000+0  26887-3 0  9994
2 57192  97.5215 115.1132 0013587 145.9424 214.2688 15.24130265146654
SITRO-AIS 8 (ANOKHIN)   
1 57193U 23091AD  26052.49796626  .00014664  00000+0  52540-3 0  9993
2 57193  97.5204 116.6167 0012306 143.9572 216.2499 15.28774938146755
SITRO-AIS 7 (FARTUSHNIY)
1 57194U 23091AE  26052.48100360  .00006259  00000+0  26155-3 0  9991
2 57194  97.5215 114.9724 0013350 147.0989 213.1082 15.23902763146641
SITRO-AIS 10 (BURDAEV)  
1 57199U 23091AK  26052.51380028  .00020198  00000+0  61530-3 0  9995
2 57199  97.5216 120.6147 0008570 123.8821 236.3238 15.33978915147009
SITRO-AIS 9 (SHCHUKIN)  
1 57201U 23091AM  26052.50817515  .00020023  00000+0  61692-3 0  9990
2 57201  97.5216 120.4178 0008685 123.9360 236.2709 15.33619933146992
SITRO-AIS 12 (SMIRENNIY)
1 57204U 23091AQ  26052.45384166  .00019579  00000+0  59872-3 0  9999
2 57204  97.5226 120.7629 0008482 119.2365 240.9727 15.33864117147009
SITRO-AIS 11 (SHEFFER)  
1 57208U 23091AU  26052.43053394  .00019792  00000+0  59910-3 0  9997
2 57208  97.5224 120.9211 0008367 118.9909 241.2173 15.34186870147016
SITRO-AIS 25            
1 59066U 24039R   26052.49585722  .00004064  00000+0  32314-3 0  9990
2 59066  95.3946 155.6307 0147577  13.1716 347.3296 14.92477248107461
SITRO-AIS 26            
1 59067U 24039S   26052.54929060  .00003867  00000+0  30894-3 0  9995
2 59067  95.3945 155.5874 0147853  13.4070 347.1016 14.92291696107461
SITRO-AIS 27            
1 59068U 24039T   26052.55089220  .00004033  00000+0  31949-3 0  9990
2 59068  95.3946 155.8089 0146922  12.2711 348.2029 14.92683968107484
SITRO-AIS 28            
1 59071U 24039U   26052.53099689  .00003494  00000+0  27693-3 0  9993
2 59071  95.3947 155.8364 0146846  12.1782 348.2930 14.92718004107488
GRBBETA                 
1 60237U 24128C   26052.17085834  .00004041  00000+0  28530-3 0  9995
2 60237  61.9885 263.0100 0052934 110.8946 249.7825 15.05567343 88799
OOV-CUBE (TUBSAT-30)    
1 60240U 24128F   26052.05474393  .00002339  00000+0  18729-3 0  9995
2 60240  61.9938 270.3407 0055822 108.9681 251.7470 15.02113433 88665
ROBUSTA-3A (MEDITERRAN*)
1 60243U 24128J   26052.10802175  .00007002  00000+0  43128-3 0  9990
2 60243  61.9850 258.1625 0053298 105.3164 255.3830 15.09710831 88885
LASARSAT                
1 62391U 24247Q   26052.39936255  .00033575  00000+0  85590-3 0  9999
2 62391  44.9754 189.3557 0003425 290.1116  69.9403 15.39005080 65438
CROCUBE                 
1 62394U 24247T   26052.44065303  .00037679  00000+0  92687-3 0  9999
2 62394  44.9726 187.8976 0003552 276.2534  83.7949 15.40041481 65456
